{
  "links" : {
    "next" : "https://api.nasa.gov/neo/rest/v1/feed?start_date=1999-01-09&end_date=1999-01-09&detailed=true&api_key=t0TVs3DtDT2H8Oy2Zy8m2eVrNsAVKAexjcZXUckd",
    "prev" : "https://api.nasa.gov/neo/rest/v1/feed?start_date=1999-01-07&end_date=1999-01-07&detailed=true&api_key=t0TVs3DtDT2H8Oy2Zy8m2eVrNsAVKAexjcZXUckd",
    "self" : "https://api.nasa.gov/neo/rest/v1/feed?start_date=1999-01-08&end_date=1999-01-08&detailed=true&api_key=t0TVs3DtDT2H8Oy2Zy8m2eVrNsAVKAexjcZXUckd"
  },
  "element_count" : 3,
  "near_earth_objects" : {
    "1999-01-08" : [ {
      "links" : {
        "self" : "https://api.nasa.gov/neo/rest/v1/neo/2396794?api_key=t0TVs3DtDT2H8Oy2Zy8m2eVrNsAVKAexjcZXUckd"
      },
      "neo_reference_id" : "2396794",
      "name" : "396794 (2004 KT)",
      "nasa_jpl_url" : "http://ssd.jpl.nasa.gov/sbdb.cgi?sstr=2396794",
      "absolute_magnitude_h" : 17.8,
      "estimated_diameter" : {
        "kilometers" : {
          "estimated_diameter_min" : 0.7320739893,
          "estimated_diameter_max" : 1.6369672047
        },
        "meters" : {
          "estimated_diameter_min" : 732.0739893473,
          "estimated_diameter_max" : 1636.96720474
        },
        "miles" : {
          "estimated_diameter_min" : 0.4548895468,
          "estimated_diameter_max" : 1.017163949
        },
        "feet" : {
          "estimated_diameter_min" : 2401.8176272101,
          "estimated_diameter_max" : 5370.6274839991
        }
      },
      "is_potentially_hazardous_asteroid" : false,
      "close_approach_data" : [ {
        "close_approach_date" : "1999-01-08",
        "epoch_date_close_approach" : 915782400000,
        "relative_velocity" : {
          "kilometers_per_second" : "27.6245503031",
          "kilometers_per_hour" : "99448.3810911766",
          "miles_per_hour" : "61793.3565730147"
        },
        "miss_distance" : {
          "astronomical" : "0.3825160952",
          "lunar" : "148.7987518311",
          "kilometers" : "57223592",
          "miles" : "35557092"
        },
        "orbiting_body" : "Earth"
      } ],
      "orbital_data" : {
        "orbit_id" : "34",
        "orbit_determination_date" : "2017-04-06 09:21:55",
        "orbit_uncertainty" : "0",
        "minimum_orbit_intersection" : ".184158",
        "jupiter_tisserand_invariant" : "3.452",
        "epoch_osculation" : "2458000.5",
        "eccentricity" : ".6636861025479762",
        "semi_major_axis" : "1.854177200764539",
        "inclination" : "43.65114507102636",
        "ascending_node_longitude" : "267.9797982583075",
        "orbital_period" : "922.2003480816936",
        "perihelion_distance" : ".6235855609558055",
        "perihelion_argument" : "238.4748679205318",
        "aphelion_distance" : "3.084768840573271",
        "perihelion_time" : "2457670.758880745162",
        "mean_anomaly" : "128.7212731795954",
        "mean_motion" : ".390370704965413",
        "equinox" : "J2000"
      }
    }, {
      "links" : {
        "self" : "https://api.nasa.gov/neo/rest/v1/neo/3291224?api_key=t0TVs3DtDT2H8Oy2Zy8m2eVrNsAVKAexjcZXUckd"
      },
      "neo_reference_id" : "3291224",
      "name" : "(2005 SP9)",
      "nasa_jpl_url" : "http://ssd.jpl.nasa.gov/sbdb.cgi?sstr=3291224",
      "absolute_magnitude_h" : 21.2,
      "estimated_diameter" : {
        "kilometers" : {
          "estimated_diameter_min" : 0.1529519353,
          "estimated_diameter_max" : 0.3420109247
        },
        "meters" : {
          "estimated_diameter_min" : 152.9519353442,
          "estimated_diameter_max" : 342.0109247198
        },
        "miles" : {
          "estimated_diameter_min" : 0.095039897,
          "estimated_diameter_max" : 0.2125156703
        },
        "feet" : {
          "estimated_diameter_min" : 501.8108275547,
          "estimated_diameter_max" : 1122.0831222578
        }
      },
      "is_potentially_hazardous_asteroid" : false,
      "close_approach_data" : [ {
        "close_approach_date" : "1999-01-08",
        "epoch_date_close_approach" : 915782400000,
        "relative_velocity" : {
          "kilometers_per_second" : "21.1502456897",
          "kilometers_per_hour" : "76140.8844828487",
          "miles_per_hour" : "47310.9845832456"
        },
        "miss_distance" : {
          "astronomical" : "0.4521761944",
          "lunar" : "175.8965301514",
          "kilometers" : "67644592",
          "miles" : "42032404"
        },
        "orbiting_body" : "Earth"
      } ],
      "orbital_data" : {
        "orbit_id" : "15",
        "orbit_determination_date" : "2017-04-06 09:10:26",
        "orbit_uncertainty" : "1",
        "minimum_orbit_intersection" : ".0511105",
        "jupiter_tisserand_invariant" : "6.575",
        "epoch_osculation" : "2458000.5",
        "eccentricity" : ".6238289259082406",
        "semi_major_axis" : ".8656114840072779",
        "inclination" : "27.74628322563337",
        "ascending_node_longitude" : "354.8465421874065",
        "orbital_period" : "294.1595423580771",
        "perihelion_distance" : ".3256180016851796",
        "perihelion_argument" : "228.0985934333867",
        "aphelion_distance" : "1.405604966329376",
        "perihelion_time" : "2457989.318310762856",
        "mean_anomaly" : "13.68443835988805",
        "mean_motion" : "1.223825673354414",
        "equinox" : "J2000"
      }
    }, {
      "links" : {
        "self" : "https://api.nasa.gov/neo/rest/v1/neo/3744153?api_key=t0TVs3DtDT2H8Oy2Zy8m2eVrNsAVKAexjcZXUckd"
      },
      "neo_reference_id" : "3744153",
      "name" : "(2016 CO247)",
      "nasa_jpl_url" : "http://ssd.jpl.nasa.gov/sbdb.cgi?sstr=3744153",
      "absolute_magnitude_h" : 20.4,
      "estimated_diameter" : {
        "kilometers" : {
          "estimated_diameter_min" : 0.2210828104,
          "estimated_diameter_max" : 0.4943561926
        },
        "meters" : {
          "estimated_diameter_min" : 221.0828103591,
          "estimated_diameter_max" : 494.3561926196
        },
        "miles" : {
          "estimated_diameter_min" : 0.137374447,
          "estimated_diameter_max" : 0.3071786018
        },
        "feet" : {
          "estimated_diameter_min" : 725.3373275385,
          "estimated_diameter_max" : 1621.9035709942
        }
      },
      "is_potentially_hazardous_asteroid" : true,
      "close_approach_data" : [ {
        "close_approach_date" : "1999-01-08",
        "epoch_date_close_approach" : 915782400000,
        "relative_velocity" : {
          "kilometers_per_second" : "17.9716936704",
          "kilometers_per_hour" : "64698.0972135754",
          "miles_per_hour" : "40200.8815714019"
        },
        "miss_distance" : {
          "astronomical" : "0.0334635537",
          "lunar" : "13.0173215866",
          "kilometers" : "5006076.5",
          "miles" : "3110631.5"
        },
        "orbiting_body" : "Earth"
      } ],
      "orbital_data" : {
        "orbit_id" : "15",
        "orbit_determination_date" : "2017-04-06 08:28:14",
        "orbit_uncertainty" : "6",
        "minimum_orbit_intersection" : ".0164728",
        "jupiter_tisserand_invariant" : "4.516",
        "epoch_osculation" : "2458000.5",
        "eccentricity" : ".5135550476409906",
        "semi_major_axis" : "1.419784827846252",
        "inclination" : "18.34390870555335",
        "ascending_node_longitude" : "292.2590348919221",
        "orbital_period" : "617.9199588891348",
        "perihelion_distance" : ".6906471629417144",
        "perihelion_argument" : "90.2705447876354",
        "aphelion_distance" : "2.148922492750789",
        "perihelion_time" : "2457931.322239104417",
        "mean_anomaly" : "40.30294468426147",
        "mean_motion" : ".5825997280411361",
        "equinox" : "J2000"
      }
    } ]
  }
}